{"type": "FeatureCollection", "features": [ {"type": "Feature", "properties": {"norad_id": 66584, "name": "STARLINK-35939", "group": "last-30-days", "lat": 42.22268037092502, "lon": -121.17693125922783, "alt_km": 366.44773973949214, "timestamp": "2025-12-05T18:53:12.097463+00:00", "meta": {"OBJECT_NAME": "STARLINK-35939", "OBJECT_ID": "2025-268AD", "EPOCH": "2025-12-05T06:00:02.000160", "MEAN_MOTION": 15.67861243, "ECCENTRICITY": 0.00018259, "INCLINATION": 42.9996, "RA_OF_ASC_NODE": 165.1709, "ARG_OF_PERICENTER": 263.359, "MEAN_ANOMALY": 25.0027, "EPHEMERIS_TYPE": 0, "CLASSIFICATION_TYPE": "U", "NORAD_CAT_ID": 66584, "ELEMENT_SET_NO": 999, "REV_AT_EPOCH": 346, "BSTAR": -0.019928133, "MEAN_MOTION_DOT": -0.01991919, "MEAN_MOTION_DDOT": 0}, "tle": {"line1": "1 66584U 25268AD  25339.25002315 -.01991919  00000+0 -19928-1 0  9992", "line2": "2 66584  42.9996 165.1709 0001825 263.3590  25.0027 15.67861243  3465"}}, "geometry": {"type": "Point", "coordinates": [-121.17693125922783, 42.22268037092502]}}, {"type": "Feature", "properties": {"norad_id": 66585, "name": "STARLINK-35963", "group": "last-30-days", "lat": 42.49154872440656, "lon": -118.60778135436952, "alt_km": 366.3281355076442, "timestamp": "2025-12-05T18:53:12.097475+00:00", "meta": {"OBJECT_NAME": "STARLINK-35963", "OBJECT_ID": "2025-268AE", "EPOCH": "2025-12-05T06:00:02.000160", "MEAN_MOTION": 15.6785402, "ECCENTRICITY": 0.00017306, "INCLINATION": 42.9997, "RA_OF_ASC_NODE": 165.1661, "ARG_OF_PERICENTER": 263.1096, "MEAN_ANOMALY": 27.1725, "EPHEMERIS_TYPE": 0, "CLASSIFICATION_TYPE": "U", "NORAD_CAT_ID": 66585, "ELEMENT_SET_NO": 999, "REV_AT_EPOCH": 346, "BSTAR": -0.0198165, "MEAN_MOTION_DOT": -0.01981493, "MEAN_MOTION_DDOT": 0}, "tle": {"line1": "1 66585U 25268AE  25339.25002315 -.01981493  00000+0 -19817-1 0  9996", "line2": "2 66585  42.9997 165.1661 0001730 263.1096  27.1725 15.67854020  3461"}}, "geometry": {"type": "Point", "coordinates": [-118.60778135436952, 42.49154872440656]}}, {"type": "Feature", "properties": {"norad_id": 66586, "name": "TJS-21", "group": "last-30-days", "lat": 47.91574011520303, "lon": -124.50220314459321, "alt_km": 29547.11918670213, "timestamp": "2025-12-05T18:53:12.097489+00:00", "meta": {"OBJECT_NAME": "TJS-21", "OBJECT_ID": "2025-269A", "EPOCH": "2025-11-22T00:38:56.616288", "MEAN_MOTION": 2.0099221, "ECCENTRICITY": 0.75179873, "INCLINATION": 51.0366, "RA_OF_ASC_NODE": 174.7096, "ARG_OF_PERICENTER": 225.0489, "MEAN_ANOMALY": 41.6572, "EPHEMERIS_TYPE": 0, "CLASSIFICATION_TYPE": "U", "NORAD_CAT_ID": 66586, "ELEMENT_SET_NO": 999, "REV_AT_EPOCH": 2, "BSTAR": 0.00053569978, "MEAN_MOTION_DOT": 3.197e-05, "MEAN_MOTION_DDOT": 0}, "tle": {"line1": "1 66586U 25269A   25326.02704417  .00003197  00000+0  53570-3 0  9990", "line2": "2 66586  51.0366 174.7096 7517987 225.0489  41.6572  2.00992210    24"}}, "geometry": {"type": "Point", "coordinates": [-124.50220314459321, 47.91574011520303]}}, {"type": "Feature", "properties": {"norad_id": 66587, "name": "CZ-3B R/B", "group": "last-30-days", "lat": 50.30249379146129, "lon": -83.87856910732204, "alt_km": 14995.791247964426, "timestamp": "2025-12-05T18:53:12.097508+00:00", "meta": {"OBJECT_NAME": "CZ-3B R/B", "OBJECT_ID": "2025-269B", "EPOCH": "2025-12-02T10:16:46.437600", "MEAN_MOTION": 2.0223182, "ECCENTRICITY": 0.75203475, "INCLINATION": 51.3575, "RA_OF_ASC_NODE": 172.0321, "ARG_OF_PERICENTER": 226.8728, "MEAN_ANOMALY": 39.3228, "EPHEMERIS_TYPE": 0, "CLASSIFICATION_TYPE": "U", "NORAD_CAT_ID": 66587, "ELEMENT_SET_NO": 999, "REV_AT_EPOCH": 24, "BSTAR": 0.0019543247, "MEAN_MOTION_DOT": 0.00047329, "MEAN_MOTION_DDOT": -2.45602e-07}, "tle": {"line1": "1 66587U 25269B   25336.42831525  .00047329 -24560-6  19543-2 0  9998", "line2": "2 66587  51.3575 172.0321 7520347 226.8728  39.3228  2.02231820   242"}}, "geometry": {"type": "Point", "coordinates": [-83.87856910732204, 50.30249379146129]}}, {"type": "Feature", "properties": {"norad_id": 66588, "name": "STARLINK-36076", "group": "last-30-days", "lat": -25.47614137399767, "lon": 84.61895115932704, "alt_km": 355.18863323596725, "timestamp": "2025-12-05T18:53:12.097520+00:00", "meta": {"OBJECT_NAME": "STARLINK-36076", "OBJECT_ID": "2025-270A", "EPOCH": "2025-12-05T06:00:02.000160", "MEAN_MOTION": 15.74051196, "ECCENTRICITY": 0.00018858, "INCLINATION": 42.9988, "RA_OF_ASC_NODE": 237.1138, "ARG_OF_PERICENTER": 274.4198, "MEAN_ANOMALY": 140.5921, "EPHEMERIS_TYPE": 0, "CLASSIFICATION_TYPE": "U", "NORAD_CAT_ID": 66588, "ELEMENT_SET_NO": 999, "REV_AT_EPOCH": 319, "BSTAR": -0.014694803, "MEAN_MOTION_DOT": -0.01882674, "MEAN_MOTION_DDOT": 0}, "tle": {"line1": "1 66588U 25270A   25339.25002315 -.01882674  00000+0 -14695-1 0  9992", "line2": "2 66588  42.9988 237.1138 0001885 274.4198 140.5921 15.74051196  3191"}}, "geometry": {"type": "Point", "coordinates": [84.61895115932704, -25.47614137399767]}}, {"type": "Feature", "properties": {"norad_id": 66589, "name": "STARLINK-35447", "group": "last-30-days", "lat": -27.680862466946163, "lon": 88.11903376550514, "alt_km": 355.2842099529489, "timestamp": "2025-12-05T18:53:12.097530+00:00", "meta": {"OBJECT_NAME": "STARLINK-35447", "OBJECT_ID": "2025-270B", "EPOCH": "2025-12-05T06:00:02.000160", "MEAN_MOTION": 15.74047444, "ECCENTRICITY": 0.00016976, "INCLINATION": 42.9987, "RA_OF_ASC_NODE": 237.1045, "ARG_OF_PERICENTER": 272.8938, "MEAN_ANOMALY": 145.9552, "EPHEMERIS_TYPE": 0, "CLASSIFICATION_TYPE": "U", "NORAD_CAT_ID": 66589, "ELEMENT_SET_NO": 999, "REV_AT_EPOCH": 330, "BSTAR": -0.014658205, "MEAN_MOTION_DOT": -0.01878169, "MEAN_MOTION_DDOT": 0}, "tle": {"line1": "1 66589U 25270B   25339.25002315 -.01878169  00000+0 -14658-1 0  9996", "line2": "2 66589  42.9987 237.1045 0001697 272.8938 145.9552 15.74047444  3306"}}, "geometry": {"type": "Point", "coordinates": [88.11903376550514, -27.680862466946163]}}, {"type": "Feature", "properties": {"norad_id": 66590, "name": "STARLINK-35429", "group": "last-30-days", "lat": -26.589509178467086, "lon": 86.35236320910522, "alt_km": 355.30066181560414, "timestamp": "2025-12-05T18:53:12.097540+00:00", "meta": {"OBJECT_NAME": "STARLINK-35429", "OBJECT_ID": "2025-270C", "EPOCH": "2025-12-05T06:00:02.000160", "MEAN_MOTION": 15.74051532, "ECCENTRICITY": 0.00017453, "INCLINATION": 42.9989, "RA_OF_ASC_NODE": 237.1092, "ARG_OF_PERICENTER": 275.2855, "MEAN_ANOMALY": 141.6451, "EPHEMERIS_TYPE": 0, "CLASSIFICATION_TYPE": "U", "NORAD_CAT_ID": 66590, "ELEMENT_SET_NO": 999, "REV_AT_EPOCH": 330, "BSTAR": -0.014704023, "MEAN_MOTION_DOT": -0.01883591, "MEAN_MOTION_DDOT": 0}, "tle": {"line1": "1 66590U 25270C   25339.25002315 -.01883591  00000+0 -14704-1 0  9995", "line2": "2 66590  42.9989 237.1092 0001745 275.2855 141.6451 15.74051532  3305"}}, "geometry": {"type": "Point", "coordinates": [86.35236320910522, -26.589509178467086]}}, {"type": "Feature", "properties": {"norad_id": 66591, "name": "STARLINK-36058", "group": "last-30-days", "lat": -28.746921755508826, "lon": 89.91661498393577, "alt_km": 355.4289615357866, "timestamp": "2025-12-05T18:53:12.097553+00:00", "meta": {"OBJECT_NAME": "STARLINK-36058", "OBJECT_ID": "2025-270D", "EPOCH": "2025-12-05T06:00:02.000160", "MEAN_MOTION": 15.74053017, "ECCENTRICITY": 0.00017398, "INCLINATION": 42.9987, "RA_OF_ASC_NODE": 237.0996, "ARG_OF_PERICENTER": 277.759, "MEAN_ANOMALY": 143.0039, "EPHEMERIS_TYPE": 0, "CLASSIFICATION_TYPE": "U", "NORAD_CAT_ID": 66591, "ELEMENT_SET_NO": 999, "REV_AT_EPOCH": 319, "BSTAR": -0.014712562, "MEAN_MOTION_DOT": -0.0188464, "MEAN_MOTION_DDOT": 0}, "tle": {"line1": "1 66591U 25270D   25339.25002315 -.01884640  00000+0 -14713-1 0  9992", "line2": "2 66591  42.9987 237.0996 0001739 277.7590 143.0039 15.74053017  3197"}}, "geometry": {"type": "Point", "coordinates": [89.91661498393577, -28.746921755508826]}}, {"type": "Feature", "properties": {"norad_id": 66592, "name": "STARLINK-36066", "group": "last-30-days", "lat": -29.79032923060479, "lon": 91.75420959184297, "alt_km": 355.44934402608123, "timestamp": "2025-12-05T18:53:12.097563+00:00", "meta": {"OBJECT_NAME": "STARLINK-36066", "OBJECT_ID": "2025-270E", "EPOCH": "2025-12-05T06:00:02.000160", "MEAN_MOTION": 15.74046486, "ECCENTRICITY": 0.00017231, "INCLINATION": 42.9987, "RA_OF_ASC_NODE": 237.0948, "ARG_OF_PERICENTER": 277.3674, "MEAN_ANOMALY": 145.3184, "EPHEMERIS_TYPE": 0, "CLASSIFICATION_TYPE": "U", "NORAD_CAT_ID": 66592, "ELEMENT_SET_NO": 999, "REV_AT_EPOCH": 309, "BSTAR": -0.01466734, "MEAN_MOTION_DOT": -0.01879138, "MEAN_MOTION_DDOT": 0}, "tle": {"line1": "1 66592U 25270E   25339.25002315 -.01879138  00000+0 -14667-1 0  9997", "line2": "2 66592  42.9987 237.0948 0001723 277.3674 145.3184 15.74046486  3094"}}, "geometry": {"type": "Point", "coordinates": [91.75420959184297, -29.79032923060479]}}, {"type": "Feature", "properties": {"norad_id": 66593, "name": "STARLINK-36031", "group": "last-30-days", "lat": -30.80621127883281, "lon": 93.6270227888547, "alt_km": 355.51394413049456, "timestamp": "2025-12-05T18:53:12.097573+00:00", "meta": {"OBJECT_NAME": "STARLINK-36031", "OBJECT_ID": "2025-270F", "EPOCH": "2025-12-05T06:00:02.000160", "MEAN_MOTION": 15.74043804, "ECCENTRICITY": 0.00017468, "INCLINATION": 42.9988, "RA_OF_ASC_NODE": 237.0898, "ARG_OF_PERICENTER": 279.2675, "MEAN_ANOMALY": 145.3377, "EPHEMERIS_TYPE": 0, "CLASSIFICATION_TYPE": "U", "NORAD_CAT_ID": 66593, "ELEMENT_SET_NO": 999, "REV_AT_EPOCH": 319, "BSTAR": -0.014658096, "MEAN_MOTION_DOT": -0.01877941, "MEAN_MOTION_DDOT": 0}, "tle": {"line1": "1 66593U 25270F   25339.25002315 -.01877941  00000+0 -14658-1 0  9998", "line2": "2 66593  42.9988 237.0898 0001746 279.2675 145.3377 15.74043804  3193"}}, "geometry": {"type": "Point", "coordinates": [93.6270227888547, -30.80621127883281]}}]}